#cP2016  7 17 12  0  0.00000000     192 ORBIT IGb08 HLM  IGS
## 1906  43200.00000000   900.00000000 57586 0.5000000000000
+   31   G01G02G03G05G06G07G08G09G10G11G12G13G14G15G16G17G18
+        G19G20G21G22G23G24G25G26G27G28G29G30G31G32  0  0  0
+          0  0  0  0  0  0  0  0  0  0  0  0  0  0  0  0  0
+          0  0  0  0  0  0  0  0  0  0  0  0  0  0  0  0  0
+          0  0  0  0  0  0  0  0  0  0  0  0  0  0  0  0  0
++         4  3  3  3  3  5  3  3  3  3  3  3  3  3  4  3  3
++         3  4  3  3  3  4  3  3  3  3  3  3  4  3  0  0  0
++         0  0  0  0  0  0  0  0  0  0  0  0  0  0  0  0  0
++         0  0  0  0  0  0  0  0  0  0  0  0  0  0  0  0  0
++         0  0  0  0  0  0  0  0  0  0  0  0  0  0  0  0  0
%c G  cc GPS ccc cccc cccc cccc cccc ccccc ccccc ccccc ccccc
%c cc cc ccc ccc cccc cccc cccc cccc ccccc ccccc ccccc ccccc
%f  1.2500000  1.025000000  0.00000000000  0.000000000000000
%f  0.0000000  0.000000000  0.00000000000  0.000000000000000
%i    0    0    0    0      0      0      0      0         0
%i    0    0    0    0      0      0      0      0         0
/* ULTRA ORBIT COMBINATION 19061_12 (57587.500) FROM:       
/* cou emu esu gfu ngu siu usu whu                          
/* REFERENCED TO emu CLOCK AND TO WEIGHTED MEAN POLE:       
/* PCV:IGS08_1904 OL/AL:FES2004  NONE     Y  ORB:CMB CLK:CMB
*  2016  7 18  9 45  0.00000000
PG01 -22402.668009 -14480.467571  -1066.278631     27.310193  5  9  8 215       
PG02   6796.147695  18721.391605  18198.915628    575.209309  9  8 10 215       
PG03 -13387.352036 -12294.351547  19372.620016    -73.923769  4 10  8 181       
PG05   3786.936359  25633.243706  -5394.671879   -104.598363 11 10  8 186       
PG06  -8309.864598  12651.839755  21836.132728    220.218303  8  7  7 134       
PG07 -22743.003262  -3311.222243 -13520.588820    441.191860  6 10  9 193       
PG08 -10318.977632 -11408.851148 -21608.989619    -43.201759  8  8  5 194       
PG09 -23843.536294   4795.553364  10680.959495    169.686334  6 11  7 207       
PG10  11021.122231 -18580.651704 -15382.806560    -67.642568  8  6  6 171       
PG11 -21505.239585 -12059.164434 -10467.540158   -656.293765  8  7  9 180       
PG12  10915.401252  15842.707970  18268.467741    385.557309  8  9  7 213       
PG13    812.336078  15643.561250 -21581.518015    -31.902956  9 11  9 193       
PG14  15534.994670 -17177.945835  13126.550571    -25.189110  8  9  9 218       
PG15  13274.468658  10004.172429 -20894.971676   -319.845524 10 11  6 208       
PG16  -1661.461964 -25642.978132  -5969.171479     -4.060823 12  9 11 231       
PG17 -20738.844853  15225.055746   6523.611623   -203.888210  7  8  6 211       
PG18  15176.305553  -6303.981961 -20280.488080    537.708197 10  9  8 136       
PG19 -15191.833590  16884.091824  13801.432998   -524.875713  9  7  8 220       
PG20  13946.432395  14913.755422 -17118.217962    424.926070  9  6  8 210       
PG21  21900.686879    131.533525 -14428.440240   -528.606412  5  9  5 219       
PG22 -11101.463528 -19617.507514  14201.367098    293.970349  9  9  7 227       
PG23 -20247.280796  -3032.060576  17354.551844   -182.617299  9 10  5 193       
PG24  20978.707597  15780.360966  -4744.124199    -20.331790  8  9  7 203       
PG25  14695.675143   2272.776500  21888.194317   -210.572473  6  8  4 133       
PG26   3691.291285 -25800.640526   4983.428039   -426.238289 10  6    155       
PG27   1924.742264 -16987.133463 -20319.333839    116.062620  9  8  7  96       
PG28 -12184.087329  16616.872439 -16108.081913    538.031841 10  9  9 215       
PG29  23085.016848  -1437.587794  13026.605952    655.282864  9  8  8 226       
PG30 -17459.693828   4768.345373 -19477.450579    140.369982  8  9  8 204       
PG31   5204.823282 -14372.660097  21789.508042    258.260657  7  7  6 212       
PG32  19681.832052 -16507.281702   6726.601599    -51.825266  9  9  9 289       
*  2016  7 18 10  0  0.00000000
PG01 -22056.226041 -14540.350708  -3898.313447     27.311352  6  9  8 198       
PG02   4891.139257  17897.493708  19585.980680    575.205810 10  8 10 215       
PG03 -13288.871037 -14429.067615  17912.947033    -73.926462  5  9  9 188       
PG05   3493.310789  26095.959547  -2606.447709   -104.595930 11 10  7 187       
PG06 -10470.111075  11433.045539  21578.028935    220.222976  8  7  7 110       
PG07 -23879.002027  -4179.918319 -11177.741184    441.189490  7 11  8 193       
PG08  -8198.471482 -12717.229401 -21782.514036    -43.203696  8  8  4 191       
PG09 -22800.683828   3892.575509  13056.780098    169.692798  7 11  6 208       
PG10  11234.449047 -16710.221191 -17263.257884    -67.649538  8  6  6 287       
PG11 -20204.042311 -12233.349264 -12733.528047   -656.295073  9  7  9 171       
PG12  10743.905623  17836.781627  16474.804235    385.557989  8  9  7 216       
PG13  -1392.828663  16585.589820 -20838.601635    -31.905085  9 11  9 189       
PG14  16821.285795 -17583.953367  10721.909251    -25.191199  8  9  8 217       
PG15  11319.663771  11389.402135 -21302.880250   -319.847102 10 11  7 210       
PG16  -1440.062129 -26141.875931  -3094.299025     -4.058949 12  8 11 231       
PG17 -21323.848331  15297.346747   3704.399193   -203.887948  7  7  6 214       
PG18  15376.928137  -3833.257739 -20751.714708    537.711913 10  9  8 129       
PG19 -16586.751977  17370.637662  11465.576829   -524.875489  8  7  8 218       
PG20  13910.161213  16769.369990 -15316.769500    424.927640  9  6  8 208       
PG21  23237.111432   1112.141616 -12265.095832   -528.607554  5  9  6 215       
PG22 -10889.981141 -21108.138633  12012.354988    293.961959 10  9  8 225       
PG23 -18582.392787  -4195.649955  18884.276593   -182.618682  9 10  5 183       
PG24  20247.729343  15692.365400  -7450.477944    -20.332190  9 10  8 208       
PG25  14710.993868   4775.777990  21490.064334   -210.578747  5  8  5 165       
PG26   3958.656107 -25078.842547   7715.926511   -426.247189 10  6  2 171       
PG27   3901.575438 -18060.695959 -19053.715419    116.066500  9  7  7  95       
PG28 -12187.762877  14557.821828 -17928.799083    538.034156 10  9  8 212       
PG29  21729.808570   -543.693005  15240.627171    655.282255  9  7  8 227       
PG30 -19190.924467   3490.855295 -18078.465962    140.372066  8  9  8 201       
PG31   7348.596779 -13121.584681  21993.195382    258.259023  7  8  6 216       
PG32  20335.269406 -16607.296303   3961.011941    -51.835073  9  9  9 289       
*  2016  7 18 10 15  0.00000000
PG01 -21430.651688 -14480.119818  -6664.334065     27.312497  8  8  7 188       
PG02   2821.358248  17117.581159  20651.420775    575.201810 10  7 10 216       
PG03 -13287.493855 -16383.935698  16145.167614    -73.929168  5  9  9 182       
PG05   3194.678200  26254.909033    227.154396   -104.593550 11 10  8 180       
PG06 -12646.391447  10351.694685  20949.038197    220.227664  8  7  7  93       
PG07 -24814.218251  -4859.548829  -8645.389130    441.186915  9 11  8 181       
PG08  -6150.517862 -14134.252839 -21579.626188    -43.205736  8  7  5 195       
PG09 -21594.808631   2791.485326  15207.918776    169.699257  7 12  6 211       
PG10  11559.541722 -14657.940180 -18845.385055    -67.655949  8  6  5 287       
PG11 -18677.218370 -12441.605432 -14786.997819   -656.296064 10  6  9 184       
PG12  10681.289449  19615.381625  14397.351162    385.558754  8  9  8 214       
PG13  -3451.899073  17596.988243 -19741.497652    -31.907271  9 11 10 193       
PG14  17842.621132 -17915.346838   8133.412962    -25.193116  8  9  9 218       
PG15   9410.378509  12883.921109 -21349.014037   -319.848479 10 10  8 209       
PG16  -1243.994279 -26320.049124   -164.988302     -4.057081 12  7 11 234       
PG17 -21630.503826  15228.758622    821.053007   -203.888184  8  7  6 214       
PG18  15690.946470  -1343.334669 -20847.174794    537.715638  9  9  8 149       
PG19 -17708.792733  17799.822041   8933.560762   -524.875457  8  7  8 218       
PG20  13925.924398  18411.876111 -13253.882918    424.929800  9  6  8 212       
PG21  24378.320052   1915.018172  -9884.270749   -528.608628  5  9  5 220       
PG22 -10718.708710 -22353.297894   9617.931886    293.953423 10  9  8 227       
PG23 -16850.830675  -5530.323136  20098.498780   -182.619881  9 10  5 192       
PG24  19242.381388  15519.149401 -10030.288938    -20.332591  9 10  8 206       
PG25  14857.987304   7205.627745  20718.684606   -210.585028  5  8  5 147       
PG26   4288.338402 -24070.824293  10315.260780   -426.256116 10  7  3 155       
PG27   5685.842766 -19147.327414 -17459.543418    116.070424 10  7  7 120       
PG28 -12306.293012  12305.585122 -19424.916115    538.036708  9  8  7 216       
PG29  20223.453950    545.319891  17191.989298    655.281872  9  6  8 225       
PG30 -20831.690388   2390.087820 -16369.607025    140.374152  8  9  9 200       
PG31   9555.263355 -11988.927558  21821.987827    258.257192  7  8  7 213       
PG32  20721.931112 -16560.664641   1127.186965    -51.844900  9  9 10 290       
EOF
